{
"type": "FeatureCollection",
"name": "merged",
"crs": { "type": "name", "properties": { "name": "urn:ogc:def:crs:OGC:1.3:CRS84" } },
"features": [
{"type":"Feature","properties":{"HYBAS_ID":4120512500,"NEXT_DOWN":4120512760,"NEXT_SINK":4129000421,"MAIN_BAS":4120007851,"DIST_SINK":276.7,"DIST_MAIN":3740.7,"SUB_AREA":172.3,"UP_AREA":172.6,"PFAF_ID":432800988000,"SIDE":"M","LAKE":0,"ENDO":1,"COAST":0,"ORDER":5,"SORT":156810},"geometry":{"type":"Polygon","coordinates":[[[98.254166666666691,38.3],[98.260543823242216,38.2994327121311],[98.264456176757832,38.296400621202281],[98.274112616644985,38.295124986436655],[98.27591976589629,38.288082885742206],[98.285289510091175,38.279733954535608],[98.293877156575547,38.278599378797765],[98.297789510091164,38.275567287868945],[98.302210489908873,38.274432712131095],[98.307586669921903,38.270266045464432],[98.331377156575542,38.271400621202275],[98.336753336588572,38.275567287868945],[98.339710489908882,38.274432712131095],[98.353178575303843,38.261932712131099],[98.356377156575547,38.263067287868942],[98.360289510091178,38.266099378797762],[98.404166666666697,38.266666666666687],[98.407654825846379,38.267638142903664],[98.409024386935783,38.286702473958357],[98.417424689398899,38.287943861219638],[98.422827317979625,38.283938259548634],[98.427172682020426,38.282728407118078],[98.431160651312965,38.279771592881964],[98.435506015353752,38.278561740451408],[98.443660651312953,38.271438259548631],[98.453216213650194,38.270079888237866],[98.454166666666694,38.266666666666687],[98.456591118706626,38.267019992404535],[98.460075547960102,38.270480007595509],[98.469091118706629,38.271186659071205],[98.472575547960091,38.274646674262172],[98.475,38.275],[98.475735134548643,38.267469278971376],[98.485493469238307,38.266049194335956],[98.489583333333357,38.263061523437521],[98.493673197428407,38.266049194335956],[98.5125,38.266666666666687],[98.513123575846379,38.255075751410608],[98.520437452528242,38.253198920355921],[98.524432712131102,38.248043823242206],[98.525,38.245833333333351],[98.535757785373292,38.245480007595503],[98.539953782823375,38.241313340928841],[98.552424452039958,38.242019992404536],[98.555908881293433,38.245480007595503],[98.575,38.245833333333351],[98.575887383355067,38.24237501356339],[98.585543823242219,38.241099378797763],[98.589456176757835,38.238067287868944],[98.606377156575547,38.2369327121311],[98.610416666666694,38.233801947699675],[98.614456176757841,38.2369327121311],[98.616666666666688,38.2375],[98.625,38.2375],[98.643877156575542,38.2369327121311],[98.647789510091172,38.233900621202281],[98.66160040961374,38.232672119140645],[98.6625,38.229166666666686],[98.663387383355058,38.225708346896724],[98.67304382324221,38.224432712131097],[98.676956176757841,38.221400621202278],[98.685543823242213,38.220266045464427],[98.68958333333336,38.217135281033009],[98.693622843424507,38.220266045464427],[98.698043823242216,38.221400621202278],[98.701956176757847,38.224432712131097],[98.708333333333357,38.225],[98.710757785373289,38.224646674262175],[98.714583333333366,38.220847913954017],[98.718408881293428,38.224646674262175],[98.72083333333336,38.225],[98.721186659071208,38.231591118706618],[98.724646674262175,38.235075547960093],[98.725,38.2375],[98.727424452039955,38.237853325737866],[98.730908881293431,38.241313340928841],[98.735757785373295,38.242019992404536],[98.741308593750034,38.247542995876756],[98.741666666666688,38.25],[98.74387715657555,38.250567287868947],[98.747789510091167,38.253599378797766],[98.756377156575553,38.25473395453561],[98.76028951009117,38.257766045464429],[98.76581573486331,38.259184095594641],[98.767881605360273,38.267233954535612],[98.773043823242219,38.266099378797762],[98.776956176757835,38.263067287868942],[98.781377156575545,38.261932712131099],[98.785289510091175,38.25890062120228],[98.7875,38.258333333333354],[98.8,38.258333333333354],[98.802424452039958,38.257980007595506],[98.805908881293433,38.254519992404532],[98.810757785373298,38.253813340928843],[98.81458333333336,38.250014580620679],[98.81875,38.254152086046027],[98.822575547960099,38.250353325737869],[98.839924452039952,38.249646674262173],[98.843408881293428,38.246186659071199],[98.856591118706632,38.245480007595503],[98.860075547960093,38.242019992404536],[98.866666666666703,38.241666666666688],[98.870833333333366,38.241666666666688],[98.873257785373298,38.241313340928841],[98.876742214626759,38.237853325737866],[98.881623670789963,38.237141927083357],[98.887146674262183,38.231591118706618],[98.887853325737879,38.226742214626753],[98.899646674262186,38.214924452039952],[98.900353325737882,38.210075547960088],[98.912146674262175,38.198257785373286],[98.912857733832496,38.193378363715297],[98.922575547960093,38.183686659071199],[98.931591118706621,38.182980007595503],[98.935075547960096,38.179519992404536],[98.939924452039961,38.178813340928841],[98.943408881293436,38.175353325737866],[98.95,38.175],[98.950353325737879,38.172575547960086],[98.957980007595509,38.164924452039948],[98.958686659071205,38.147575547960088],[98.962146674262186,38.144091118706619],[98.9625,38.141666666666687],[98.963467746310798,38.137896050347244],[98.968622843424512,38.13390062120228],[98.98243374294708,38.132672119140643],[98.983333333333363,38.129166666666684],[98.994924248589442,38.129790242513039],[98.995833333333366,38.133333333333354],[98.998081461588569,38.132803683810785],[99.007250298394126,38.124470350477452],[99.010581461588572,38.125529649522591],[99.014418538411491,38.128637017144115],[99.018914794921912,38.129696316189253],[99.024059380425371,38.133862982855923],[99.028399997287352,38.132421196831615],[99.029166666666697,38.129166666666684],[99.031591118706629,38.128813340928836],[99.035075547960105,38.125353325737869],[99.0375,38.125],[99.038177151150208,38.113497585720509],[99.045719401041694,38.111341349283876],[99.050617472330757,38.10463595920141],[99.049382527669295,38.093673027886304],[99.045215861002632,38.087969292534744],[99.046586778428846,38.075799899631093],[99.057361518012186,38.074231635199673],[99.059491984049515,38.066780598958353],[99.064506361219642,38.063117472330745],[99.066666666666691,38.0625],[99.066666666666691,38.058333333333351],[99.073043823242216,38.057766045464447],[99.078420003255246,38.053599378797777],[99.086607530381968,38.054903327094216],[99.091099378797779,38.060289510091181],[99.092517428927977,38.065815734863314],[99.098043823242222,38.067233954535624],[99.103420003255238,38.071400621202294],[99.10752224392364,38.069826592339446],[99.108333333333363,38.066666666666706],[99.111862182617216,38.065760972764792],[99.113132731119819,38.046812438964878],[99.118622843424504,38.042233954535625],[99.141666666666694,38.0416666666667],[99.142019992404542,38.035075547960105],[99.145480007595523,38.031591118706629],[99.146186659071205,38.014242214626769],[99.153813340928849,38.006591118706631],[99.154524739583366,38.001709832085538],[99.160075547960105,37.996186659071213],[99.169091118706632,37.995480007595518],[99.172575547960108,37.992019992404551],[99.177424452039958,37.991313340928855],[99.185075547960096,37.983686659071218],[99.1875,37.98333333333337],[99.1875,37.979166666666686],[99.188104926215303,37.968660651312966],[99.191061740451417,37.964672682020435],[99.192617119683192,37.959086778428855],[99.202172851562537,37.957728237575992],[99.206257459852466,37.954700046115484],[99.215879313151078,37.963105095757413],[99.224283175998295,37.961678059895867],[99.225,37.954166666666701],[99.233333333333363,37.954166666666701],[99.244091118706635,37.953813340928853],[99.247575547960096,37.950353325737879],[99.256591118706623,37.949646674262191],[99.260786946614616,37.945480007595521],[99.273257785373289,37.946186659071216],[99.277083333333366,37.949985419379374],[99.280908881293442,37.946186659071216],[99.28333333333336,37.945833333333368],[99.284184095594654,37.94251759847009],[99.2875,37.941666666666698],[99.288867865668436,37.936882358127207],[99.293826972113749,37.938117641872864],[99.298638916015662,37.941632758246563],[99.303549194335972,37.935493469238317],[99.305166286892387,37.924382358127204],[99.318826972113754,37.925617641872861],[99.324530707465314,37.929784308539531],[99.32716030544708,37.928549024793874],[99.335339694552985,37.921450975206199],[99.347993638780409,37.920215691460541],[99.356243557400205,37.913056606716616],[99.360339694552991,37.916049024793871],[99.364660305447075,37.917284308539529],[99.372910224066871,37.924443393283454],[99.377006361219657,37.921450975206199],[99.385493638780417,37.920215691460541],[99.393673027886322,37.913117641872866],[99.39799363878042,37.911882358127201],[99.402006361219648,37.908950975206196],[99.406326972113746,37.907715691460538],[99.410339694552988,37.904784308539533],[99.414660305447086,37.903549024793868],[99.418673027886314,37.900617641872863],[99.422993638780412,37.899382358127205],[99.427083333333371,37.896394856770868],[99.432864040798648,37.900617641872863],[99.435493638780414,37.899382358127205],[99.439506361219657,37.8964509752062],[99.45,37.895833333333364],[99.450354682074689,37.889214579264355],[99.460075547960102,37.879519992404546],[99.464954969618091,37.878808932834232],[99.474646674262189,37.869091118706628],[99.475,37.841666666666697],[99.481591118706632,37.841313340928856],[99.485786946614624,37.837146674262186],[99.498257785373298,37.837853325737882],[99.501742214626773,37.841313340928856],[99.504166666666706,37.841666666666697],[99.507937282986148,37.842634412977461],[99.511932712131113,37.847789510091182],[99.513208346896732,37.857445949978334],[99.516666666666694,37.85833333333337],[99.523257785373303,37.857980007595522],[99.530908881293442,37.850353325737878],[99.544091118706632,37.849646674262189],[99.547575547960108,37.846186659071215],[99.552424452039958,37.845480007595519],[99.55662027994795,37.841313340928856],[99.560757785373298,37.842019992404545],[99.56495361328129,37.846186659071215],[99.577424452039963,37.845480007595519],[99.580908881293439,37.842019992404545],[99.589924452039966,37.841313340928856],[99.593408881293442,37.837853325737882],[99.598257785373292,37.837146674262186],[99.610075547960108,37.825353325737879],[99.620833333333366,37.825],[99.625,37.825],[99.625567287868961,37.827210489908886],[99.628599378797773,37.831122843424509],[99.629875013563407,37.840779283311669],[99.633333333333368,37.841666666666683],[99.64799363878042,37.841049024793868],[99.65369737413198,37.836882358127205],[99.674003770616352,37.838182237413228],[99.676158650716175,37.845719401041698],[99.682864040798648,37.850617641872866],[99.689660305447077,37.849382358127201],[99.697839694552982,37.842284308539533],[99.707627699110276,37.840859646267397],[99.709037272135447,37.82166425916887],[99.720065985785624,37.811882358127207],[99.740670098198819,37.813181220160622],[99.742825317382852,37.8207194010417],[99.747839694552994,37.824382358127203],[99.758333333333368,37.825],[99.760468207465308,37.824357265896303],[99.772865125868094,37.813142734103764],[99.783113945855064,37.811581081814268],[99.786857096354197,37.806301710340747],[99.78821987575958,37.784110005696647],[99.795833333333377,37.783333333333367],[99.804166666666703,37.783333333333367],[99.805381605360282,37.788067287868955],[99.81471048990889,37.786932712131112],[99.818622843424521,37.783900621202292],[99.820833333333368,37.783333333333367],[99.821708848741352,37.774749755859411],[99.827083333333377,37.778560553656718],[99.831198459201431,37.775642734103769],[99.833333333333371,37.775],[99.833900621202275,37.777210489908889],[99.841099378797765,37.785289510091175],[99.842517598470067,37.790815734863315],[99.849291483561217,37.792554050021735],[99.850708516438829,37.803279283311667],[99.854166666666686,37.804166666666703],[99.865929328070763,37.804904005262621],[99.866666666666688,37.816666666666698],[99.889748297797325,37.816137186686234],[99.893585035536049,37.8130294799805],[99.898081631130665,37.811970520019564],[99.901918368869374,37.808862813313837],[99.915324232313395,37.807803853352901],[99.917196146647157,37.81344078911679],[99.913029479980494,37.81858503553606],[99.911970520019551,37.821774122450122],[99.916137186686214,37.826918368869393],[99.916666666666686,37.833333333333364],[99.92304382324221,37.832766045464446],[99.926956176757841,37.829733954535627],[99.943877156575539,37.828599378797776],[99.94778951009117,37.825567287868957],[99.952210489908879,37.824432712131113],[99.956122843424495,37.821400621202287],[99.961649068196635,37.819982401529984],[99.963413323296464,37.813107469346818],[99.979166666666686,37.8125],[99.979524739583354,37.810043165418868],[99.985075547960093,37.804519992404551],[99.989924452039958,37.803813340928855],[99.998284403483098,37.795480007595522],[100.010757785373286,37.796186659071211],[100.014583333333348,37.799985419379375],[100.018408881293425,37.796186659071211],[100.023257785373289,37.795480007595522],[100.026742214626765,37.792019992404548],[100.031591118706615,37.791313340928852],[100.035416666666691,37.787514580620694],[100.039953782823375,37.792019992404548],[100.048257785373281,37.791313340928852],[100.051742214626756,37.787853325737878],[100.069091118706623,37.787146674262189],[100.076742214626762,37.779519992404545],[100.081591118706626,37.778813340928849],[100.085787116156709,37.774646674262186],[100.094091118706615,37.775353325737882],[100.097575547960091,37.778813340928849],[100.1,37.779166666666697],[100.10221048990887,37.778599378797779],[100.106122843424501,37.775567287868959],[100.115779283311653,37.774291483561228],[100.117881605360267,37.766099378797776],[100.123043823242213,37.767233954535627],[100.12695617675783,37.770266045464446],[100.131377156575539,37.771400621202289],[100.135425482855922,37.774538167317743],[100.144896104600718,37.766099378797776],[100.152210489908882,37.767233954535627],[100.156122843424498,37.770266045464446],[100.170833333333363,37.770833333333364],[100.17429148356122,37.769945949978329],[100.175567287868944,37.760289510091177],[100.17859937879777,37.756377156575553],[100.179166666666688,37.754166666666698],[100.185757785373283,37.753813340928851],[100.18995378282338,37.749646674262188],[100.210757785373289,37.750353325737883],[100.219117736816429,37.758686659071216],[100.227424452039955,37.757980007595521],[100.235784403483095,37.749646674262188],[100.252424452039961,37.750353325737883],[100.256620449490043,37.754519992404546],[100.260757785373286,37.753813340928851],[100.264242214626762,37.750353325737883],[100.273257785373289,37.749646674262188],[100.277084011501756,37.745847235785625],[100.285415988498286,37.754152764214446],[100.289242214626768,37.750353325737883],[100.294091118706618,37.749646674262188],[100.301742214626756,37.742019992404543],[100.308333333333351,37.741666666666703],[100.314924452039961,37.741313340928855],[100.322575547960099,37.733686659071211],[100.335046217176668,37.732980007595522],[100.339583333333351,37.737485419379375],[100.343408881293428,37.733686659071211],[100.355879550510011,37.732980007595522],[100.360075547960093,37.737146674262185],[100.369091118706621,37.737853325737881],[100.37464192708336,37.743376498752205],[100.375,37.745833333333366],[100.379166666666691,37.745833333333366],[100.380134412977455,37.742062547471818],[100.38528951009117,37.738067287868958],[100.39081573486331,37.736649068196648],[100.392233954535612,37.731122843424515],[100.399432712131102,37.723043823242222],[100.4,37.720833333333367],[100.400850931803404,37.717517598470081],[100.407482401529975,37.715815734863313],[100.40925309922963,37.708916219075554],[100.418622843424501,37.700567287868957],[100.424417114257835,37.699080234103768],[100.432766045464433,37.68971048990889],[100.434236823187959,37.683979119194909],[100.44778951009117,37.671400621202288],[100.454166666666694,37.670833333333363],[100.454757181803416,37.646847703721818],[100.460289510091172,37.642233954535619],[100.464710489908882,37.641099378797776],[100.468622843424498,37.638067287868957],[100.473043823242207,37.636932712131106],[100.476956176757838,37.633900621202287],[100.482937452528233,37.632365587022605],[100.486932712131107,37.627210489908883],[100.48835093180341,37.62168426513675],[100.49387715657555,37.62026604546444],[100.497789510091167,37.617233954535621],[100.506377156575553,37.616099378797777],[100.51028951009117,37.613067287868958],[100.527210489908882,37.611932712131107],[100.531122843424498,37.608900621202288],[100.535543823242207,37.607766045464444],[100.543622843424501,37.600567287868955],[100.545833333333363,37.6],[100.546191406250031,37.59754316541887],[100.551742214626756,37.592019992404545],[100.554166666666688,37.591666666666697],[100.553510708279106,37.584293111165394],[100.54804382324221,37.579733954535619],[100.542517598470084,37.57831573486331],[100.540698920355936,37.571229214138484],[100.535543823242207,37.567233954535624],[100.529166666666697,37.566666666666698],[100.528813340928849,37.555908881293433],[100.525353325737868,37.552424452039965],[100.525,37.55],[100.525850931803404,37.546684265136747],[100.532482401529975,37.544982401529978],[100.534184265136744,37.538350931803414],[100.5375,37.5375],[100.537853325737871,37.530908881293435],[100.545480007595515,37.523257785373296],[100.546186659071211,37.518408881293432],[100.557980007595518,37.506591118706631],[100.558333333333366,37.5],[100.55918426513675,37.49668426513675],[100.5625,37.495833333333366],[100.582417636447502,37.496431816948814],[100.584301079644121,37.503770785861576],[100.590920003255235,37.508900621202287],[100.593877156575545,37.507766045464443],[100.597789510091175,37.504733954535624],[100.615663994683189,37.503535461425813],[100.632766045464436,37.485543823242217],[100.633333333333354,37.4791666666667],[100.633900621202287,37.472789510091175],[100.636932712131099,37.468877156575552],[100.63806728786895,37.464456176757842],[100.645266045464439,37.456377156575549],[100.646400621202289,37.451956176757847],[100.657766045464442,37.439710489908883],[100.65925309922963,37.433916219075549],[100.668622843424501,37.425567287868951],[100.67304382324221,37.424432712131107],[100.682396104600727,37.416099378797774],[100.685543823242213,37.417233954535618],[100.690920003255229,37.421400621202288],[100.702210489908879,37.420266045464437],[100.710289510091172,37.413067287868955],[100.716029018825978,37.411594306098124],[100.717233954535615,37.393622843424509],[100.724432712131104,37.385543823242216],[100.725,37.383333333333361],[100.74387715657555,37.382766045464436],[100.747789510091167,37.379733954535624],[100.75510389539933,37.378599378797773],[100.764456176757847,37.386932712131106],[100.771579996744819,37.388067287868957],[100.776956176757835,37.383900621202287],[100.789710489908884,37.382766045464436],[100.793622843424501,37.379733954535624],[100.796770562066001,37.378599378797773],[100.806122843424504,37.386932712131106],[100.810543823242213,37.388067287868957],[100.814456176757844,37.391099378797776],[100.818877156575553,37.392233954535619],[100.82278951009117,37.395266045464439],[100.82831573486331,37.396684265136749],[100.829166666666694,37.4],[100.849219767252634,37.400685628255239],[100.850642903645863,37.414635043674075],[100.857690429687523,37.422864956325988],[100.858333333333363,37.425],[100.8625,37.425],[100.869091118706621,37.424646674262185],[100.872575547960096,37.421186659071211],[100.875,37.420833333333363],[100.87845831976999,37.419945949978327],[100.879733954535624,37.410289510091175],[100.882864718967042,37.40625],[100.878599378797773,37.400746663411489],[100.879733954535624,37.393622843424509],[100.882864718967042,37.389583333333363],[100.879733954535624,37.385543823242216],[100.878599378797773,37.364456176757841],[100.875567287868947,37.360543823242217],[100.87443271213111,37.356122843424508],[100.870266045464433,37.350746663411485],[100.871903143988746,37.346479458279106],[100.885543823242216,37.345266045464442],[100.889456176757847,37.342233954535622],[100.894982571072077,37.340815734863313],[100.895833333333357,37.3375],[100.895833333333357,37.325],[100.889242214626762,37.324646674262183],[100.885757785373286,37.321186659071209],[100.851742214626768,37.320480007595513],[100.846191406250028,37.314956834581196],[100.845480007595512,37.310075547960096],[100.839956834581187,37.304524739583364],[100.835075547960102,37.303813340928848],[100.827424452039963,37.296186659071211],[100.825,37.295833333333363],[100.824228583441865,37.288271416558189],[100.816666666666691,37.2875],[100.813350931803413,37.286649068196645],[100.81193271213111,37.281122843424505],[100.80741390652129,37.275704277886312],[100.796720716688398,37.274291483561228],[100.795266045464444,37.268622843424509],[100.783900621202292,37.256377156575553],[100.782482401529975,37.250850931803413],[100.776956176757835,37.249432712131103],[100.773043823242219,37.246400621202284],[100.768622843424509,37.24526604546444],[100.76367865668405,37.241434224446643],[100.761932712131099,37.236511908637183],[100.774432712131102,37.223043823242215],[100.775567287868952,37.214456176757842],[100.778599378797765,37.210543823242219],[100.779733954535615,37.203420003255239],[100.775567287868952,37.198043823242216],[100.775,37.191666666666691],[100.764242214626762,37.191313340928851],[100.760757785373286,37.187853325737876],[100.758333333333354,37.1875],[100.754166666666691,37.1875],[100.753510708279109,37.180126444498725],[100.748043823242213,37.175567287868951],[100.742062547471818,37.174032253689262],[100.738067287868958,37.168877156575547],[100.73661261664499,37.163208516438829],[100.725887383355058,37.161791483561224],[100.724149068196638,37.155017428927977],[100.718622843424512,37.153599378797772],[100.714710489908882,37.150567287868952],[100.700899590386314,37.149338785807316],[100.699096510145424,37.14231228298614],[100.685543823242213,37.129733954535617],[100.683333333333366,37.129166666666691],[100.683976067437101,37.127031792534751],[100.686857265896293,37.122968207465306],[100.688142734103764,37.118698459201418],[100.695190599229633,37.110468207465303],[100.696476067437089,37.106198459201416],[100.707690599229622,37.093801540798637],[100.708976067437092,37.08953179253475],[100.712750244140651,37.084208848741348],[100.704166666666694,37.083333333333364],[100.704733954535612,37.056122843424504],[100.707766045464439,37.05221048990888],[100.708900621202289,37.047789510091171],[100.720266045464442,37.035543823242215],[100.721541849772166,37.025887383355062],[100.725,37.025],[100.725,37.016666666666694],[100.725353325737871,37.014242214626762],[100.728813340928852,37.010757785373293],[100.729519992404548,37.005908881293429],[100.732980007595515,37.002424452039961],[100.733686659071211,36.997575547960096],[100.737146674262178,36.994091118706621],[100.7375,36.991666666666696],[100.74412044949004,36.991311645507842],[100.749646674262181,36.985757785373288],[100.750353325737876,36.980908881293431],[100.753813340928843,36.977424452039955],[100.754519992404539,36.968408881293428],[100.757980007595521,36.964924452039959],[100.758333333333354,36.9625],[100.761649068196647,36.96164923773874],[100.7625,36.958333333333357],[100.7628580729167,36.955876329210099],[100.768408881293425,36.950353325737872],[100.773290167914524,36.949641927083363],[100.778813340928849,36.944091118706623],[100.779519992404545,36.939242214626759],[100.782980007595512,36.935757785373291],[100.78333333333336,36.933333333333358],[100.783989291720943,36.92595994737416],[100.789456176757838,36.921400621202281],[100.795437452528233,36.919865587022599],[100.799432712131107,36.914710489908877],[100.80085093180341,36.909184095594647],[100.804166666666688,36.90833333333336],[100.805017598470087,36.905017428927977],[100.812104119194913,36.903198920355926],[100.816099378797773,36.898043823242212],[100.816666666666691,36.891666666666694],[100.819091118706623,36.891313340928846],[100.822575547960099,36.887853325737872],[100.825,36.8875],[100.82556728786895,36.88528951009117],[100.829733954535612,36.879913330078153],[100.828599378797776,36.868622843424504],[100.824432712131099,36.863246663411488],[100.82556728786895,36.856122843424508],[100.832766045464439,36.848043823242215],[100.834301079644121,36.842062717013917],[100.839456176757835,36.838067287868952],[100.84498257107208,36.83664923773874],[100.84668409559464,36.830017428927974],[100.85,36.829166666666694],[100.850357733832496,36.826712375217042],[100.864242214626771,36.812853325737876],[100.879166666666691,36.8125],[100.880017428927985,36.809184095594645],[100.883333333333368,36.808333333333358],[100.889924452039963,36.807980007595511],[100.893408881293425,36.804519992404536],[100.898257785373289,36.803813340928848],[100.901742214626765,36.800353325737873],[100.904166666666697,36.8],[100.904790242513045,36.788409084743947],[100.90833333333336,36.7875],[100.908686659071208,36.780908881293428],[100.916313340928852,36.773257785373289],[100.917019992404548,36.768408881293425],[100.921186659071211,36.76421305338544],[100.920480007595515,36.760075547960092],[100.916313340928852,36.755879720052107],[100.917019992404548,36.751742214626759],[100.921186659071211,36.747546386718774],[100.920480007595515,36.743408881293426],[100.916313340928852,36.739213053385441],[100.917019992404548,36.730908881293431],[100.924646674262178,36.723257785373292],[100.925,36.72083333333336],[100.928521050347257,36.719929673936655],[100.941099378797773,36.706377156575542],[100.942517428927985,36.700850762261311],[100.949603949652811,36.699032253689261],[100.953599378797776,36.693877156575546],[100.954166666666694,36.691666666666691],[100.951742214626762,36.691313340928843],[100.946191406250023,36.685790337456623],[100.945480007595521,36.680908881293426],[100.941681247287363,36.677083333333357],[100.945480007595521,36.673257785373288],[100.946186659071216,36.668408881293431],[100.949646674262183,36.664924452039955],[100.950353325737879,36.660075547960091],[100.960045030381977,36.650357733832493],[100.964924452039966,36.649646674262179],[100.978808932834227,36.635787624783006],[100.979519992404548,36.630908881293429],[100.987146674262178,36.623257785373291],[100.987853325737873,36.618408881293426],[100.991313340928855,36.614924452039958],[100.992019992404551,36.610075547960093],[100.995480007595518,36.606591118706618],[100.995833333333366,36.579166666666687],[100.995833333333366,36.575],[100.995833333333366,36.566666666666691],[100.996186659071213,36.564242214626759],[101.004152764214439,36.556250678168425],[101.000013902452281,36.552082655164952],[101.007980007595521,36.544091118706618],[101.008333333333368,36.52916666666669],[101.009184095594648,36.525850762261307],[101.014710489908879,36.524432712131102],[101.031122843424512,36.50890062120228],[101.040779283311664,36.507624986436653],[101.0416666666667,36.504166666666691],[101.045833333333363,36.504166666666691],[101.046684095594642,36.500850762261308],[101.052210489908887,36.499432712131096],[101.060289510091181,36.492233954535614],[101.066270616319471,36.490698920355925],[101.070266045464436,36.48554382324221],[101.071400621202287,36.481122843424501],[101.074432712131113,36.477210489908877],[101.075,36.470833333333353],[101.07556728786895,36.464456176757835],[101.078698052300382,36.460416666666688],[101.074432712131113,36.454913330078149],[101.076006740993961,36.450811089409747],[101.081377156575556,36.449432712131099],[101.097789510091175,36.433900621202277],[101.107445949978327,36.432624986436657],[101.108900621202281,36.426956176757834],[101.111932712131107,36.42304382324221],[101.113067287868958,36.418622843424501],[101.120266045464447,36.410543823242207],[101.121400621202284,36.406122843424498],[101.12443271213111,36.402210489908875],[101.125903659396727,36.396478949652803],[101.139456176757847,36.38390062120228],[101.143877156575556,36.382766045464429],[101.147789510091172,36.37973395453561],[101.156377156575559,36.378599378797766],[101.160289510091175,36.375567287868947],[101.168877156575547,36.374432712131096],[101.172789510091178,36.371400621202277],[101.183333333333366,36.370833333333358],[101.183900621202284,36.368622843424504],[101.18693271213111,36.364710489908873],[101.188067287868961,36.360289510091164],[101.191931152343784,36.355303955078149],[101.1875,36.354166666666686],[101.1875,36.35],[101.181122843424504,36.350567287868948],[101.177210489908887,36.353599378797767],[101.170086669921901,36.354733954535611],[101.163467746310801,36.349603949652803],[101.16160040961374,36.342327880859393],[101.146732923719654,36.341005452473979],[101.144933742947075,36.333994547526061],[101.130066257052988,36.332672119140646],[101.128599378797773,36.326956176757832],[101.125567287868961,36.323043823242209],[101.124149237738749,36.317517428927971],[101.118622843424504,36.316099378797766],[101.114710489908887,36.313067287868947],[101.110289510091178,36.311932712131096],[101.106377156575547,36.308900621202277],[101.101956176757838,36.307766045464433],[101.098043823242222,36.304733954535614],[101.06156277126739,36.303599378797763],[101.052210489908887,36.311932712131096],[101.045086669921901,36.313067287868947],[101.039710489908884,36.308900621202277],[101.028420003255235,36.307766045464433],[101.023043823242219,36.311932712131096],[101.015920003255232,36.313067287868947],[101.010543823242216,36.308900621202277],[101.006122843424507,36.307766045464433],[100.996752929687531,36.299417114257835],[100.995833333333366,36.295833333333356],[100.993622843424504,36.296400621202281],[100.989710489908887,36.2994327121311],[100.985289510091178,36.300567287868944],[100.980134412977463,36.304562717013908],[100.978599378797767,36.310543823242206],[100.975567287868955,36.314456176757837],[100.974432712131104,36.318877156575539],[100.962094116210963,36.332171291775197],[100.957586669921909,36.333900621202275],[100.952210489908879,36.329733954535612],[100.94288160536027,36.328599378797762],[100.941666666666691,36.333333333333357],[100.941666666666691,36.34166666666669],[100.930908881293433,36.342019992404538],[100.925358072916694,36.347542995876758],[100.925,36.35],[100.924432712131107,36.352210489908877],[100.916083780924509,36.361580403645853],[100.908994547526078,36.363399590386308],[100.907672119140656,36.378267076280402],[100.901956176757835,36.37973395453561],[100.896801079644121,36.383729383680574],[100.894945949978322,36.390958319769986],[100.884220716688404,36.392375013563388],[100.883333333333368,36.395833333333357],[100.877031792534751,36.39647623697919],[100.872916666666697,36.399393717447936],[100.868745252821213,36.396436225043423],[100.860468207465303,36.403523763020857],[100.854911634657142,36.405196804470506],[100.853395250108534,36.420061916775197],[100.838530137803843,36.421578301323805],[100.8375,36.425],[100.835075547960102,36.425353325737866],[100.831591118706626,36.428813340928841],[100.822575547960099,36.429519992404536],[100.819091118706623,36.432980007595511],[100.81495378282338,36.433686659071199],[100.810757785373298,36.429519992404536],[100.801742214626771,36.428813340928841],[100.797916327582499,36.425014241536481],[100.792024739583368,36.430876329210093],[100.791313340928852,36.435757785373283],[100.781621805826845,36.445475599500888],[100.776742214626765,36.446186659071202],[100.773257785373289,36.449646674262176],[100.768408881293425,36.450353325737872],[100.760757785373286,36.457980007595509],[100.758333333333354,36.458333333333357],[100.755908881293436,36.457980007595509],[100.752424452039961,36.454519992404535],[100.739953782823378,36.453813340928839],[100.735757785373295,36.457980007595509],[100.708333333333357,36.458333333333357],[100.707980007595509,36.460757785373289],[100.702452765570769,36.46631300184464],[100.683333333333366,36.46666666666669],[100.654166666666697,36.46666666666669],[100.651742214626765,36.467019992404538],[100.648257785373289,36.470480007595512],[100.6375,36.470833333333353],[100.627006530761747,36.471450805664084],[100.62299346923831,36.474382527669292],[100.613235134548631,36.475802612304712],[100.6125,36.483333333333356],[100.608333333333363,36.483333333333356],[100.5875,36.483333333333356],[100.586612616644999,36.486791653103325],[100.576956176757832,36.488067287868944],[100.573043823242216,36.491099378797763],[100.564456176757844,36.492233954535614],[100.560543823242213,36.495266045464433],[100.555017598470073,36.496684095594638],[100.55359937879777,36.502210489908876],[100.549080573187965,36.507629055447069],[100.539456176757838,36.50890062120228],[100.535543823242207,36.511932712131099],[100.526956176757835,36.51306728786895],[100.523043823242219,36.516099378797769],[100.514456176757832,36.517233954535612],[100.510543823242216,36.520266045464432],[100.506122843424507,36.521400621202282],[100.502210489908876,36.524432712131102],[100.497789510091167,36.525567287868945],[100.49387715657555,36.528599378797765],[100.489456176757841,36.529733954535615],[100.481377156575547,36.536932712131097],[100.479166666666686,36.5375],[100.464242214626765,36.537853325737871],[100.460757785373289,36.541313340928845],[100.455908881293425,36.542019992404533],[100.452424452039963,36.545480007595508],[100.447575547960099,36.546186659071203],[100.444091118706623,36.549646674262178],[100.435075547960096,36.550353325737873],[100.431591118706621,36.553813340928841],[100.423287116156715,36.554519992404536],[100.419091118706618,36.550353325737873],[100.410075547960091,36.549646674262178],[100.400354003906273,36.539951239691867],[100.399646674262172,36.514242214626762],[100.392019992404542,36.506591118706623],[100.391666666666694,36.504166666666691],[100.3875,36.504166666666691],[100.386362881130665,36.499735514322943],[100.379913330078153,36.50473395453561],[100.372789510091167,36.503599378797766],[100.36875,36.500468614366341],[100.363246663411488,36.50473395453561],[100.360289510091178,36.503599378797766],[100.356377156575547,36.500567287868947],[100.351956176757838,36.499432712131096],[100.348043823242207,36.496400621202277],[100.335289510091172,36.495266045464433],[100.327210489908879,36.488067287868944],[100.32278951009117,36.4869327121311],[100.318877156575539,36.483900621202281],[100.300905693901939,36.482695515950546],[100.3,36.479166666666686],[100.299032253689262,36.475396050347243],[100.293877156575547,36.471400621202278],[100.280066257052979,36.470172119140649],[100.278599378797765,36.464456176757835],[100.275567287868952,36.460543823242212],[100.274344041612437,36.446793280707489],[100.268877156575542,36.44223395453561],[100.254166666666691,36.441666666666691],[100.25,36.441666666666691],[100.249646674262181,36.448257785373286],[100.242019992404536,36.455908881293425],[100.241313340928841,36.460757785373289],[100.229519992404533,36.472575547960091],[100.229166666666686,36.479166666666686],[100.229166666666686,36.483333333333356],[100.228315734863301,36.486649237738739],[100.222789510091175,36.488067287868944],[100.214592149522588,36.495371500651068],[100.209301079644121,36.491270616319468],[100.20743696424698,36.484007093641516],[100.195086669921892,36.48276604546443],[100.189710489908876,36.4869327121311],[100.161753336588561,36.488067287868944],[100.156377156575545,36.483900621202281],[100.15,36.483333333333356],[100.143408881293425,36.483686659071203],[100.139924452039949,36.487146674262178],[100.125,36.4875],[100.114242214626756,36.487853325737873],[100.110757785373281,36.491313340928841],[100.102453782823375,36.492019992404536],[100.098257785373292,36.487853325737873],[100.09583333333336,36.4875],[100.081122843424495,36.488067287868944],[100.077210489908879,36.491099378797763],[100.074253336588569,36.492233954535614],[100.068877156575539,36.488067287868944],[100.06445617675783,36.4869327121311],[100.060543823242213,36.483900621202281],[100.047048272026927,36.48276604546443],[100.045833333333348,36.4875],[100.035075547960091,36.487146674262178],[100.031591118706615,36.483686659071203],[100.029166666666683,36.483333333333356],[100.028395250108531,36.49089525010853],[100.014531622992649,36.492309570312521],[100.010468377007399,36.495190429687526],[100.006198289659309,36.496476236979191],[100.002135043674073,36.499357096354188],[99.999678209092906,36.500642903645854],[99.99375,36.496439615885443],[99.98963504367407,36.499357096354188],[99.987178209092903,36.500642903645854],[99.98130171034073,36.496476236979191],[99.949366251627623,36.495190429687526],[99.939635043674073,36.503523763020858],[99.922864956325981,36.504809570312524],[99.91880171034073,36.507690429687521],[99.9166666666667,36.508333333333354],[99.916666666666686,36.5125],[99.916666666666686,36.516666666666687],[99.913350762261317,36.517517428927974],[99.9125,36.520833333333357],[99.909184095594654,36.521684095594644],[99.907433742947092,36.528505452473979],[99.893622843424509,36.529733954535615],[99.889710489908893,36.532766045464435],[99.881122843424521,36.533900621202278],[99.87721048990889,36.536932712131097],[99.875,36.5375],[99.868622843424518,36.538067287868948],[99.864710489908887,36.541099378797767],[99.849253336588575,36.542233954535611],[99.843877156575559,36.538067287868948],[99.838350762261328,36.536649237738736],[99.8375,36.53333333333336],[99.826742214626776,36.533686659071201],[99.819091118706638,36.541313340928845],[99.816666666666706,36.541666666666693],[99.813161214192746,36.542566257052975],[99.81193271213111,36.556377156575543],[99.803583780924512,36.565747070312526],[99.8,36.566666666666691],[99.799646674262192,36.569091118706623],[99.796186659071211,36.572575547960092],[99.795833333333377,36.583333333333357],[99.795833333333377,36.5875],[99.789242214626768,36.587853325737868],[99.785757785373306,36.591313340928842],[99.772575547960102,36.592019992404538],[99.769091118706626,36.595480007595512],[99.766666666666708,36.59583333333336],[99.764242214626776,36.596186659071208],[99.756591118706638,36.603813340928845],[99.74757554796011,36.604519992404541],[99.744091118706635,36.607980007595508],[99.739242214626771,36.608686659071203],[99.735757785373295,36.612146674262178],[99.726742214626768,36.612853325737873],[99.723257785373306,36.616313340928841],[99.718408881293442,36.617019992404536],[99.712858072916703,36.622542995876756],[99.7125,36.625],[99.705908881293439,36.625353325737869],[99.702424452039963,36.628813340928843],[99.697575547960099,36.629519992404539],[99.675357733832499,36.65171271430124],[99.674646674262192,36.656591118706622],[99.662853325737885,36.668408881293431],[99.662146674262189,36.673257785373288],[99.648287624783023,36.687142266167562],[99.645833333333371,36.6875],[99.642517428927988,36.688350762261308],[99.641666666666708,36.691666666666691],[99.641666666666708,36.7],[99.64131334092886,36.702424452039956],[99.637853325737879,36.705908881293425],[99.6375,36.708333333333357],[99.6375,36.71666666666669],[99.630908881293436,36.717019992404538],[99.61702134874136,36.730881754557316],[99.616313340928855,36.744091118706621],[99.610790337456635,36.74964192708336],[99.605908881293431,36.750353325737869],[99.602424452039969,36.753813340928843],[99.597575547960105,36.754519992404539],[99.594091118706629,36.757980007595513],[99.570833333333368,36.758333333333361],[99.570833333333368,36.7625],[99.570480007595521,36.773257785373289],[99.567019992404553,36.776742214626765],[99.566313340928858,36.789215766059051],[99.574646674262183,36.797575547960093],[99.575,36.8],[99.574646674262183,36.810757785373291],[99.560787624783018,36.824642266167558],[99.555908881293433,36.825353325737872],[99.552424452039958,36.828813340928846],[99.55,36.829166666666694],[99.550353325737888,36.831591118706626],[99.553813340928855,36.835075547960095],[99.554519992404551,36.844091118706622],[99.557980007595518,36.847575547960098],[99.558333333333366,36.85],[99.558333333333366,36.866666666666696],[99.551742214626771,36.867019992404536],[99.544091118706632,36.874646674262181],[99.539242214626768,36.875353325737876],[99.531591118706629,36.882980007595513],[99.526742214626765,36.883686659071209],[99.514924452039963,36.895480007595509],[99.510075547960099,36.896186659071205],[99.506591118706638,36.899646674262179],[99.501742214626773,36.900353325737875],[99.498257785373298,36.903813340928849],[99.489242214626771,36.904519992404538],[99.485757785373295,36.907980007595512],[99.476742214626768,36.908686659071208],[99.473257785373292,36.912146674262182],[99.458333333333371,36.9125],[99.455017428927988,36.91335076226131],[99.454166666666694,36.916666666666693],[99.442575751410629,36.917290242513047],[99.441666666666706,36.920833333333363],[99.430908881293433,36.921186659071203],[99.427424452039958,36.924646674262178],[99.420833333333363,36.925],[99.418622843424515,36.925567287868951],[99.414710489908884,36.92859937879777],[99.406122843424512,36.929733954535614],[99.402210489908882,36.932766045464433],[99.393622843424509,36.933900621202284],[99.389710489908893,36.936932712131103],[99.381122843424507,36.938067287868947],[99.37721048990889,36.941099378797773],[99.372789510091181,36.942233954535617],[99.36887715657555,36.945266045464436],[99.364456176757841,36.946400621202287],[99.360543823242224,36.949432712131106],[99.356122843424515,36.95056728786895],[99.348043823242222,36.957766045464439],[99.339456176757849,36.958900621202282],[99.335543823242219,36.961932712131102],[99.330017428927988,36.963350762261314],[99.32825758192277,36.970209757487005],[99.316666666666706,36.97083333333336],[99.316313340928858,36.964242214626765],[99.312853325737876,36.960757785373289],[99.3125,36.958333333333357],[99.310075547960096,36.957980007595509],[99.300357733832499,36.948288302951418],[99.299646674262192,36.943408881293429],[99.292019992404548,36.935757785373291],[99.2916666666667,36.933333333333358],[99.289456176757838,36.932766045464433],[99.285416666666706,36.929635281033015],[99.281377156575559,36.932766045464433],[99.272789510091172,36.933900621202284],[99.264710489908893,36.941099378797773],[99.259184095594648,36.942517428927978],[99.257424248589444,36.94937642415367],[99.235289510091178,36.95056728786895],[99.231377156575547,36.953599378797769],[99.222789510091175,36.954733954535619],[99.214592149522602,36.962038167317736],[99.210543823242219,36.958900621202282],[99.206122843424509,36.957766045464439],[99.202210489908879,36.954733954535619],[99.189456176757844,36.953599378797769],[99.185543823242213,36.95056728786895],[99.181122843424504,36.949432712131106],[99.177083333333371,36.946301947699681],[99.173043823242224,36.949432712131106],[99.159232923719657,36.950661214192735],[99.15833333333336,36.954166666666694],[99.158686659071208,36.969091118706622],[99.166313340928852,36.976742214626761],[99.1666666666667,36.979166666666693],[99.1666666666667,36.983333333333363],[99.168877156575547,36.983900621202281],[99.171400621202295,36.986285061306447],[99.1666666666667,36.9875],[99.165779283311664,36.990958319769994],[99.156122843424512,36.992233954535614],[99.143877156575556,37.003599378797773],[99.139456176757847,37.004733954535617],[99.135543823242216,37.007766045464436],[99.132586669921906,37.008900621202287],[99.12721048990889,37.004733954535617],[99.120086669921903,37.003599378797773],[99.114710489908887,37.007766045464436],[99.106122843424515,37.008900621202287],[99.098043823242222,37.016099378797769],[99.091666666666697,37.016666666666694],[99.091313340928849,37.019091118706626],[99.079519992404542,37.030908881293428],[99.078813340928846,37.035757785373292],[99.075353325737879,37.039242214626761],[99.074646674262183,37.052424452039958],[99.071186659071216,37.055908881293433],[99.070480007595521,37.060757785373291],[99.067019992404539,37.064242214626766],[99.066666666666691,37.066666666666691],[99.063350762261308,37.067517428927978],[99.0625,37.070833333333361],[99.0625,37.075],[99.051742214626771,37.074646674262183],[99.048257785373295,37.071186659071209],[99.0375,37.070833333333361],[99.035075547960105,37.071186659071209],[99.027424452039966,37.078813340928846],[99.020833333333357,37.079166666666694],[99.019924248589433,37.082709757487009],[99.008333333333368,37.083333333333364],[99.007766045464436,37.089710489908882],[99.003770616319471,37.094865587022596],[98.996572197808192,37.096712917751766],[98.995266045464433,37.104913330078155],[98.999531385633716,37.110416666666694],[98.996400621202284,37.114456176757841],[98.995124986436664,37.124112616644993],[98.989456176757841,37.125567287868954],[98.98554382324221,37.128599378797773],[98.981122843424515,37.129733954535617],[98.973043823242222,37.136932712131106],[98.966666666666697,37.1375],[98.945833333333368,37.1375],[98.9454752604167,37.135042995876766],[98.939924452039961,37.129519992404539],[98.9375,37.129166666666691],[98.935289510091181,37.129733954535617],[98.925919596354191,37.138082885742215],[98.924432712131107,37.143877156575549],[98.919873385959235,37.149344211154542],[98.906122843424512,37.150567287868952],[98.902210489908882,37.153599378797772],[98.896684095594651,37.155017428927977],[98.895266045464439,37.160543823242215],[98.892233954535612,37.164456176757838],[98.890779283311659,37.170124816894557],[98.881122843424507,37.171400621202288],[98.873043823242213,37.17859937879777],[98.868622843424504,37.179733954535621],[98.860425482855931,37.187038167317738],[98.856377156575547,37.183900621202284],[98.849062771267384,37.18276604546444],[98.839592149522602,37.191204833984401],[98.835543823242219,37.188067287868954],[98.824011908637175,37.186932712131103],[98.810543823242213,37.199432712131106],[98.808333333333366,37.2],[98.807980007595518,37.202424452039956],[98.800353325737873,37.210075547960095],[98.8,37.2125],[98.793408881293431,37.212853325737875],[98.787858072916691,37.2183764987522],[98.787146674262175,37.223257785373292],[98.781623501247864,37.228808593750031],[98.776742214626765,37.229519992404541],[98.773257785373289,37.232980007595515],[98.766666666666694,37.233333333333363],[98.764242214626762,37.233686659071211],[98.760757785373286,37.237146674262185],[98.748284403483098,37.237853325737873],[98.739924452039958,37.229519992404541],[98.735787116156715,37.228813340928845],[98.731591118706632,37.232980007595515],[98.726742214626768,37.233686659071211],[98.723257785373292,37.237146674262185],[98.718408881293428,37.237853325737873],[98.714924452039952,37.241313340928848],[98.706620449490046,37.242019992404543],[98.702424452039963,37.237853325737873],[98.695833333333354,37.2375],[98.693622843424507,37.238067287868951],[98.689710489908876,37.24109937879777],[98.685289510091167,37.242233954535621],[98.68137715657555,37.24526604546444],[98.672789510091178,37.246400621202284],[98.663419765896293,37.254749552408882],[98.661649068196638,37.261649068196647],[98.656122843424512,37.26306728786895],[98.650967746310798,37.267062547471816],[98.65,37.270833333333364],[98.639531622992649,37.270190599229629],[98.634208848741352,37.266416422526071],[98.633333333333354,37.275],[98.629166666666691,37.275],[98.628400166829451,37.278254699707063],[98.624059210883274,37.279696146647161],[98.618914964463997,37.275529479980499],[98.611559210883271,37.274470520019563],[98.606414964464008,37.278637186686225],[98.597751702202714,37.279696146647161],[98.59375,37.282937452528245],[98.589748297797343,37.279696146647161],[98.5875,37.279166666666697],[98.586932712131102,37.281377156575552],[98.579733954535612,37.289456176757838],[98.578599378797776,37.298043823242217],[98.567233954535624,37.310289510091174],[98.565815734863307,37.315815734863314],[98.560289510091167,37.317233954535617],[98.55637715657555,37.320266045464436],[98.550661214192729,37.321732923719651],[98.549432712131107,37.335543823242219],[98.538067287868955,37.347789510091175],[98.5375,37.35],[98.522575547960102,37.350353325737878],[98.519091118706626,37.353813340928852],[98.505908881293422,37.354519992404541],[98.485757785373295,37.374646674262181],[98.480908881293431,37.375353325737876],[98.477424452039955,37.378813340928851],[98.468408881293428,37.379519992404546],[98.464924452039952,37.382980007595513],[98.458333333333357,37.383333333333361],[98.447575547960099,37.383686659071209],[98.444091118706623,37.387146674262183],[98.441666666666691,37.3875],[98.429166666666688,37.3875],[98.428813340928841,37.389924452039963],[98.419119432237437,37.399644470214874],[98.410075547960091,37.400353325737875],[98.406591118706629,37.403813340928849],[98.4,37.404166666666697],[98.392566257052977,37.404827880859408],[98.391099378797762,37.410543823242215],[98.383900621202287,37.418622843424508],[98.382766045464436,37.43137715657555],[98.378206888834654,37.436844041612446],[98.364456176757841,37.438067287868954],[98.356377156575547,37.445266045464443],[98.350850931803407,37.446684265136753],[98.349149068196638,37.45331573486331],[98.343622843424498,37.454733954535619],[98.335543823242219,37.461932712131109],[98.331122843424509,37.463067287868952],[98.327210489908879,37.466099378797772],[98.321684265136739,37.467517598470081],[98.319933742947072,37.474338785807319],[98.306122843424504,37.475567287868955],[98.302210489908873,37.478599378797774],[98.293622843424501,37.479733954535618],[98.289583333333354,37.482864549424946],[98.285543823242207,37.479733954535618],[98.282586669921898,37.478599378797774],[98.277210489908882,37.482766045464437],[98.272789510091172,37.483900621202288],[98.268877156575542,37.486932712131107],[98.241666666666688,37.4875],[98.23835093180341,37.486649068196648],[98.2375,37.483333333333363],[98.230066257052982,37.483994547526073],[98.228599378797767,37.489710489908887],[98.224604119194908,37.494865587022602],[98.22083333333336,37.495833333333366],[98.206122843424509,37.496400621202291],[98.202210489908879,37.49943271213111],[98.19778951009117,37.500567287868954],[98.193877156575539,37.503599378797773],[98.184220716688387,37.504875183105497],[98.182766045464433,37.510543823242216],[98.179733954535607,37.514456176757847],[98.179166666666688,37.525],[98.178543090820341,37.536590745714008],[98.172789510091164,37.538067287868955],[98.168877156575547,37.541099378797774],[98.161753336588561,37.542233954535618],[98.156377156575545,37.538067287868955],[98.153420003255235,37.536932712131104],[98.148043823242205,37.541099378797774],[98.131122843424507,37.542233954535618],[98.127210489908876,37.545266045464444],[98.1125,37.545833333333363],[98.097575547960091,37.546186659071211],[98.094091118706615,37.549646674262185],[98.080908881293425,37.550353325737881],[98.077424452039949,37.553813340928848],[98.055908881293419,37.554519992404543],[98.048257785373281,37.562146674262181],[98.043408881293431,37.562853325737876],[98.037858072916691,37.568376498752201],[98.0375,37.570833333333368],[98.038107469346812,37.58658667670359],[98.041666666666686,37.5875],[98.042290242513047,37.599090745714008],[98.045833333333348,37.6],[98.046186659071196,37.610757785373295],[98.054152764214436,37.618749321831629],[98.050353325737873,37.622575547960103],[98.049646674262178,37.635757785373293],[98.041313340928838,37.64411773681644],[98.042025587293864,37.648291185167132],[98.047575547960093,37.653813340928849],[98.05,37.654166666666697],[98.050567287868944,37.660543823242222],[98.05359937879777,37.664456176757845],[98.055017598470073,37.669982401529978],[98.061649068196644,37.671684265136754],[98.0625,37.675],[98.069933742947072,37.675661214192743],[98.070833333333354,37.679166666666703],[98.063399590386311,37.679827880859406],[98.06161872016061,37.686767069498728],[98.053178575303846,37.688067287868954],[98.03971048990887,37.675567287868958],[98.024253336588558,37.674432712131107],[98.018877156575542,37.678599378797777],[98.016666666666708,37.679166666666703],[98.016099378797762,37.68971048990889],[98.012104119194902,37.694865587022605],[98.006122843424507,37.696400621202287],[98.000967746310792,37.700395880805154],[97.999432712131096,37.706377156575556],[97.996400621202284,37.710289510091179],[97.995266045464433,37.714710489908889],[97.990687561035173,37.720200602213573],[97.972789510091161,37.721400621202292],[97.964710489908882,37.728599378797774],[97.949253336588569,37.729733954535625],[97.94375,37.725468783908454],[97.939710489908876,37.728599378797774],[97.933994547526069,37.730066257052982],[97.933333333333366,37.7375],[97.933686659071199,37.752424452039961],[97.937146674262181,37.755908881293436],[97.9375,37.779166666666697],[97.927006361219654,37.779784308539533],[97.922993638780426,37.782715691460538],[97.904973687066004,37.784038967556455],[97.90354919433598,37.793826802571651],[97.896450805664102,37.802006530761751],[97.894839816623303,37.807641262478334],[97.87580702039935,37.809038967556454],[97.874382527669312,37.81882680257165],[97.871450805664097,37.822839864095087],[97.870215861002634,37.827160135904982],[97.867284138997434,37.83117319742842],[97.866049194335972,37.843826802571648],[97.863117472330771,37.847839864095086],[97.861882527669309,37.852160135904981],[97.854784138997431,37.860339864095089],[97.853549194335969,37.864660135904984],[97.845536634657151,37.873893568250899],[97.838426378038235,37.87592637803823],[97.836882527669303,37.88132680257165],[97.825617472330762,37.89367319742842],[97.824231635199695,37.903195020887622],[97.818673027886319,37.904784308539533],[97.813658650716178,37.908447265625036],[97.8125,37.9125],[97.816666666666706,37.9125],[97.820833333333368,37.9125],[97.821684095594648,37.915815734863315],[97.825,37.9166666666667],[97.825567287868964,37.923043823242224],[97.828599378797776,37.926956176757848],[97.829733954535627,37.929913330078158],[97.824798583984418,37.936281331380243],[97.825845675998295,37.940952724880674],[97.835543823242219,37.942233954535624],[97.840962388780412,37.946752760145436],[97.842375013563398,37.957445949978336],[97.848043823242222,37.958900621202289],[97.856122843424515,37.966099378797779],[97.861892361111146,37.967579989963141],[97.8625,37.98333333333337],[97.858333333333377,37.983333333333348],[97.858963521321641,37.985480923122864],[97.870203145345073,37.997852410210541],[97.871557786729625,38.015904574924079],[97.88391418457033,38.017163933648035],[97.890435451931438,38.012470838758716],[97.892823791503929,38.020609707302555],[97.903481207953575,38.029796854654982],[97.914647589789524,38.028536478678419],[97.920437113444038,38.024369812011756],[97.92298092312285,38.02563018798832],[97.931185743543864,38.032703145345089],[97.935480923122853,38.033963521321652],[97.941270446777366,38.038130187988315],[97.947980923122856,38.036869812011751],[97.952019076877193,38.033963521321652],[98.003329806857664,38.032673475477466],[98.007703145345076,38.027147589789529],[98.009741041395415,38.020203145345086],[98.022980923122859,38.02146352132165],[98.028770446777372,38.02563018798832],[98.035480923122847,38.024369812011756],[98.043685743543861,38.01729685465498],[98.045833333333348,38.016666666666701],[98.046191067165822,38.019121805826856],[98.055908881293419,38.028813340928856],[98.066666666666691,38.029166666666704],[98.075,38.029166666666704],[98.07831573486331,38.030017598470089],[98.079166666666708,38.033333333333353],[98.079166666666694,38.0375],[98.075850931803402,38.038350762261302],[98.075,38.041666666666686],[98.078492906358534,38.04256320529516],[98.079733954535612,38.054913330078143],[98.07556728786895,38.060289510091167],[98.074432712131099,38.068877156575539],[98.071302117241771,38.072916666666686],[98.074432712131099,38.076956176757832],[98.075,38.079166666666687],[98.075,38.08333333333335],[98.074646674262169,38.089924452039952],[98.071186659071202,38.093408881293421],[98.070480007595506,38.102424452039948],[98.062499152289519,38.110430908203142],[98.072575547960099,38.120480007595503],[98.075,38.120833333333351],[98.074646674262169,38.127424452039953],[98.071186659071202,38.130908881293422],[98.070480007595506,38.156591118706615],[98.067019992404539,38.160075547960091],[98.066666666666706,38.166666666666686],[98.069091118706623,38.167019992404533],[98.072575547960099,38.170480007595508],[98.075,38.170833333333356],[98.075,38.175],[98.07565680609811,38.195019192165816],[98.085493469238301,38.196450805664085],[98.090962219238307,38.200824652777797],[98.092284308539519,38.218826972113739],[98.104971483018687,38.232598537868945],[98.118826802571633,38.23395080566408],[98.12430843777129,38.238334825303838],[98.12561764187285,38.259070163302972],[98.117284308539524,38.268673027886308],[98.116049024793853,38.277160305447069],[98.108950975206184,38.285339694552974],[98.107715691460527,38.289660305447072],[98.104784308539521,38.293673027886307],[98.103549024793864,38.297993638780405],[98.100617641872859,38.30200636121964],[98.1,38.308333333333351],[98.10221048990887,38.308900621202277],[98.111562771267387,38.31723395453561],[98.114710489908873,38.316099378797766],[98.118622843424504,38.313067287868947],[98.123043823242213,38.311932712131096],[98.12695617675783,38.308900621202277],[98.140767076280412,38.307672119140648],[98.14258643256295,38.300582885742209],[98.151956176757835,38.292233954535611],[98.156377156575545,38.291099378797767],[98.160289510091175,38.288067287868941],[98.164710489908884,38.286932712131097],[98.168622843424501,38.283900621202278],[98.170833333333363,38.283333333333353],[98.171191406250017,38.285790337456618],[98.176742214626756,38.291313340928838],[98.179166666666688,38.291666666666686],[98.180134412977452,38.295437282986136],[98.186362881130663,38.300264485677104],[98.1875,38.295833333333356],[98.191666666666691,38.295833333333356],[98.198257785373286,38.295480007595508],[98.202453782823369,38.291313340928838],[98.206591118706626,38.292019992404533],[98.210075547960088,38.295480007595508],[98.219091118706615,38.296186659071203],[98.227451070149769,38.304519992404536],[98.235757785373295,38.303813340928841],[98.239242214626756,38.300353325737866],[98.254166666666691,38.3]]]}}
]
}
