{
"type": "FeatureCollection",
"name": "contributing_polygons",
"crs": { "type": "name", "properties": { "name": "urn:ogc:def:crs:OGC:1.3:CRS84" } },
"features": [
{"type":"Feature","id":156532,"properties":{"HYBAS_ID":4129000421,"NEXT_DOWN":4120578642,"NEXT_SINK":4129000421,"MAIN_BAS":4120007851,"DIST_SINK":0.0,"DIST_MAIN":3464.0,"SUB_AREA":4454.0,"UP_AREA":29604.7,"PFAF_ID":432800100000,"SIDE":"L","LAKE":1,"ENDO":2,"COAST":0,"ORDER":3,"SORT":156533},"geometry":{"type":"Polygon","coordinates":[[[100.362591055535731,36.66395771706695],[100.345756530761719,36.658267974853516],[100.33062744140625,36.657768249511719],[100.308631896972656,36.661235809326172],[100.300346374511719,36.660903930664062],[100.288047790527344,36.655689239501953],[100.272499084472656,36.65313720703125],[100.271351197314914,36.65282029715069],[100.266300717383061,36.651425955397499],[100.247268676757812,36.646171569824219],[100.233344464286958,36.645708204914648],[100.229092668651106,36.645566715196331],[100.219871520996094,36.645259857177734],[100.209138683941106,36.643315667414598],[100.205467224121094,36.642650604248047],[100.193305969238281,36.639488220214844],[100.180675868250503,36.634074144351679],[100.169883728027344,36.629447937011719],[100.159797668457031,36.627571105957031],[100.136375427246094,36.630836486816406],[100.125129699707031,36.628547668457031],[100.1143798828125,36.629680633544922],[100.10064697265625,36.633228302001953],[100.096244812011719,36.635704040527344],[100.077133178710938,36.639701843261719],[100.07135009765625,36.638328552246094],[100.058316350654437,36.6436305454829],[100.051910400390625,36.646236419677734],[100.041468183024463,36.648709277569502],[100.037879943847656,36.649559020996094],[100.025564413291519,36.651326419176399],[100.017837524414062,36.652435302734375],[100.00360107421875,36.652549743652344],[99.998428344726562,36.656429290771484],[99.982013292546739,36.659318221434901],[99.981521606445312,36.659404754638672],[99.972205494275627,36.661783809536423],[99.965538024902344,36.663486480712891],[99.962722430469782,36.664344864831754],[99.947357177734375,36.669029235839844],[99.942741394042969,36.677474975585938],[99.9383544921875,36.684993743896484],[99.930287368275515,36.691524992157312],[99.926132202148438,36.694889068603516],[99.920524597167969,36.705898284912109],[99.918478936941341,36.707713752895224],[99.906455993652344,36.7183837890625],[99.886116027832031,36.726070404052734],[99.879868788203325,36.726804814448023],[99.868560791015625,36.728134155273438],[99.849441528320312,36.727733612060547],[99.83331298828125,36.724918365478516],[99.829342177096734,36.723645961321495],[99.817337036132812,36.719799041748047],[99.815342894674018,36.719761937016706],[99.809341430664062,36.719650268554688],[99.803606871885862,36.72053591469804],[99.801437377929688,36.720870971679688],[99.793592524816418,36.725625988779008],[99.788497924804688,36.728713989257812],[99.784904479980469,36.740325927734375],[99.7882080078125,36.743183135986328],[99.787788391113281,36.745723724365234],[99.781356811523438,36.757671356201172],[99.781143188476562,36.763645172119141],[99.790252685546875,36.777984619140625],[99.794136047363281,36.790683746337891],[99.794033200610372,36.79225443757062],[99.793533325195312,36.799888610839844],[99.792651287211697,36.804062156420876],[99.791969299316406,36.807289123535156],[99.791196262778413,36.808454122261431],[99.789456176757852,36.808900621202284],[99.785543823242222,36.811932712131103],[99.783333333333374,36.8125],[99.783900621202292,36.818877156575546],[99.784105030464701,36.81914090898772],[99.783843994140625,36.819534301757812],[99.764930725097656,36.832878112792969],[99.759559631347656,36.833774566650391],[99.758653540134745,36.833577720255882],[99.743370056152344,36.830257415771484],[99.717613220214844,36.83880615234375],[99.70806884765625,36.843936920166016],[99.701553344726562,36.847442626953125],[99.669967651367188,36.879146575927734],[99.660256320421965,36.883168682420617],[99.649879455566406,36.887466430664062],[99.636199951171875,36.893020629882812],[99.622314453125,36.905010223388672],[99.611770629882812,36.910446166992188],[99.605789184570312,36.920989990234375],[99.606481087174075,36.924460066651747],[99.6077880859375,36.931015014648438],[99.610347870713738,36.941731033250221],[99.611899131986632,36.94822507322219],[99.614524841308594,36.959217071533203],[99.618728637695312,36.962730407714844],[99.621074073154929,36.960664638407216],[99.622535705566406,36.959377288818359],[99.625663757324219,36.959033966064453],[99.641868591308594,36.967613220214844],[99.645454406738281,36.970230102539062],[99.645263671875,36.970821380615234],[99.643028259277344,36.977893829345703],[99.645179748535156,36.980567932128906],[99.681434631347656,36.979446411132812],[99.690132141113281,36.976596832275391],[99.695938110351562,36.973167419433594],[99.70330810546875,36.962104797363281],[99.711257934570312,36.956298828125],[99.768035888671875,36.949558258056641],[99.775260925292969,36.950889587402344],[99.779582074265846,36.951727957038976],[99.787117004394531,36.953189849853516],[99.801406860351562,36.953098297119141],[99.805305480957031,36.951343536376953],[99.812853313001654,36.951742452215051],[99.8125,36.958333333333357],[99.814936228671257,36.958413348156384],[99.814620971679688,36.959014892578125],[99.818229675292969,36.971725463867188],[99.823173522949219,36.973140716552734],[99.825519987429985,36.975206544870623],[99.830413818359375,36.979515075683594],[99.826972961425781,36.984237670898438],[99.830429077148438,36.989383697509766],[99.833231958855265,36.990876721883993],[99.840469360351562,36.994731903076172],[99.84210205078125,36.99810791015625],[99.838867418266474,37.011327712607923],[99.838417053222656,37.013168334960938],[99.827232360839844,37.012680053710938],[99.82568359375,37.015495300292969],[99.826400756835938,37.019245147705078],[99.827339172363281,37.024150848388672],[99.822662353515625,37.036949157714844],[99.823196411132812,37.050697326660156],[99.808845520019531,37.064556121826172],[99.788520812988281,37.069465637207031],[99.769050598144531,37.098659515380859],[99.752601623535156,37.111217498779297],[99.752047725398469,37.112218316687063],[99.748710632324219,37.118247985839844],[99.746625476090315,37.140062173986287],[99.746223449707031,37.144268035888672],[99.747424762613065,37.150090003770075],[99.751014709472656,37.167488098144531],[99.75567626953125,37.178554534912109],[99.762633981836103,37.187465615644797],[99.762809753417969,37.187690734863281],[99.774513244628906,37.196651458740234],[99.781707763671875,37.197067260742188],[99.785049438476562,37.195331573486328],[99.797988891601562,37.19598388671875],[99.806221008300781,37.1993408203125],[99.816290170326198,37.197869866665386],[99.823272705078125,37.196849822998047],[99.831459045410156,37.204334259033203],[99.847824096679688,37.209438323974609],[99.856764772302043,37.216338655239404],[99.857452392578125,37.216869354248047],[99.862232116396228,37.217497237515168],[99.869590759277344,37.218463897705078],[99.878425002143658,37.218017808840827],[99.889610290527344,37.217453002929688],[99.897514343261719,37.215309143066406],[99.904779710900812,37.217081541220296],[99.908866882324219,37.21807861328125],[99.922317504882812,37.217548370361328],[99.941812885581513,37.222281881592117],[99.945899963378906,37.223274230957031],[99.954505920410156,37.227981567382812],[99.967864990234375,37.235256195068359],[99.982475280761719,37.234905242919922],[99.985977280581636,37.233897902971719],[99.988960266113281,37.233039855957031],[99.98914164511848,37.232882105108352],[100.0,37.223438262939453],[100.004426528082362,37.219587894188912],[100.00665283203125,37.2176513671875],[100.034073596760678,37.202719603495822],[100.034400939941406,37.202541351318359],[100.043342590332031,37.198738098144531],[100.063385009765625,37.193569183349609],[100.069706500701272,37.192900872215212],[100.073921203613281,37.192455291748047],[100.094490051269531,37.191162109375],[100.104038162584402,37.192141807287079],[100.136054992675781,37.195426940917969],[100.166783031386942,37.200294496708004],[100.1728515625,37.201255798339844],[100.186965942382812,37.197689056396484],[100.194038391113281,37.196247100830078],[100.19891357421875,37.200634002685547],[100.205651558590475,37.194865828501726],[100.206520080566406,37.194122314453125],[100.215003967285156,37.192161560058594],[100.221038818359375,37.192367553710938],[100.222891050777733,37.195859158379008],[100.221186659071208,37.197575547960099],[100.22083333333336,37.208333333333364],[100.223043823242207,37.207766045464439],[100.227229120829747,37.204036763680527],[100.231163024902344,37.211452484130859],[100.239906311035156,37.217971801757812],[100.250785827636719,37.222103118896484],[100.255315849216515,37.222038701158425],[100.259101867675781,37.22198486328125],[100.262489318847656,37.221153259277344],[100.268432653985769,37.216341635746112],[100.274749755859375,37.211227416992188],[100.276426887933027,37.207681455598468],[100.280417742350025,37.199243589605111],[100.282058715820312,37.195774078369141],[100.2879638671875,37.189556121826172],[100.299407958984375,37.184711456298828],[100.307830810546875,37.177700042724609],[100.316352844238281,37.176418304443359],[100.323635101638999,37.167804199761882],[100.323799133300781,37.167610168457031],[100.329741273703149,37.156841387502688],[100.334304809570312,37.148571014404297],[100.348525430040425,37.132955020934155],[100.353004455566406,37.128036499023438],[100.359849991342628,37.121222571921642],[100.364570617675781,37.116523742675781],[100.368049621582031,37.108570098876953],[100.373382568359375,37.10260009765625],[100.390922546386719,37.090599060058594],[100.391866379419724,37.08977415650444],[100.404182434082031,37.079010009765625],[100.408697349348358,37.075187673734327],[100.419898986816406,37.065704345703125],[100.430400354947849,37.057473868391867],[100.433235168457031,37.055252075195312],[100.453712463378906,37.044719696044922],[100.465934753417969,37.035003662109375],[100.470730631501212,37.028848595861106],[100.472785949707031,37.026210784912109],[100.490618959887342,37.00104562227024],[100.491592407226562,36.999671936035156],[100.506309509277344,36.964889526367188],[100.509253248578659,36.957924816673213],[100.518203735351562,36.936748504638672],[100.494552612304688,36.921039581298828],[100.476638793945312,36.914024353027344],[100.461669921875,36.903892517089844],[100.44585804838006,36.866802703784138],[100.45,36.866666666666696],[100.449432712131099,36.864456176757841],[100.447497240401418,36.861958870094909],[100.450111389160156,36.855278015136719],[100.454917907714844,36.850246429443359],[100.455334735210258,36.850046779480053],[100.469323814596677,36.850169447585209],[100.483955383300781,36.861595153808594],[100.489112854003906,36.861824035644531],[100.501838684082031,36.855754852294922],[100.519151073202607,36.854466608556912],[100.524856567382812,36.854042053222656],[100.526217334302729,36.853298213260025],[100.550460815429688,36.840045928955078],[100.558150480062864,36.837825956208803],[100.563621520996094,36.836246490478516],[100.568840026855469,36.837390899658203],[100.572555541992188,36.841583251953125],[100.572219848632812,36.849174499511719],[100.575599670410156,36.852695465087891],[100.579078674316406,36.853458404541016],[100.591484069824219,36.851062774658203],[100.594978332519531,36.847923278808594],[100.596481323242188,36.832473754882812],[100.5994873046875,36.826370239257812],[100.623184204101562,36.797519683837891],[100.630180358886719,36.791461944580078],[100.654107703935921,36.777835589132728],[100.677940368652344,36.764263153076172],[100.681565118372816,36.76306131566885],[100.686738247341609,36.763186306423634],[100.687302060131543,36.770388942979892],[100.645896911621094,36.795799255371094],[100.6351318359375,36.805244445800781],[100.61505126953125,36.836685180664062],[100.614082336425781,36.843387603759766],[100.618705749511719,36.856494903564453],[100.633735656738281,36.8631591796875],[100.641960144042969,36.862327575683594],[100.652847290039062,36.858619689941406],[100.656387329101562,36.860294342041016],[100.661674499511719,36.866481781005859],[100.669998168945312,36.867019653320312],[100.67968670065585,36.863627802688754],[100.682823181152344,36.862529754638672],[100.693229675292969,36.856086730957031],[100.699951171875,36.854167938232422],[100.703872680664062,36.857204437255859],[100.706504821777344,36.870170593261719],[100.710067749023438,36.8720703125],[100.712897352486266,36.869922268775362],[100.713409423828125,36.869533538818359],[100.715217590332031,36.868160247802734],[100.721054077148438,36.857791900634766],[100.724624633789062,36.855789184570312],[100.734642028808594,36.85601806640625],[100.7430419921875,36.849658966064453],[100.752889513961904,36.832938922164779],[100.756805419921875,36.826290130615234],[100.761245727539062,36.808406829833984],[100.761093139648438,36.802215576171875],[100.759573404776106,36.796955544178502],[100.755790710449219,36.783863067626953],[100.750556945800781,36.774463653564453],[100.74517822265625,36.771038055419922],[100.7342529296875,36.769485473632812],[100.714851379394531,36.769916534423828],[100.712720936566328,36.77109232706659],[100.704414367675781,36.775676727294922],[100.699836730957031,36.775428771972656],[100.696418762207031,36.771450042724609],[100.696281433105469,36.765487670898438],[100.70184326171875,36.755359649658203],[100.719383758772494,36.729250452796201],[100.725082397460938,36.720767974853516],[100.732917785644531,36.714668273925781],[100.740997314453125,36.711997985839844],[100.745658874511719,36.705352783203125],[100.74810791015625,36.699726104736328],[100.746948381691212,36.69177917069829],[100.745346069335938,36.680797576904297],[100.73796836938979,36.641620955561365],[100.731201171875,36.605686187744141],[100.724555749378283,36.587435223346603],[100.722732543945312,36.582427978515625],[100.718083287762653,36.575676637959354],[100.708786010742188,36.562175750732422],[100.699986190419224,36.553746203364668],[100.698722839355469,36.552536010742188],[100.694305419921875,36.550445556640625],[100.684585571289062,36.54974365234375],[100.66424560546875,36.551826477050781],[100.650802612304688,36.554965972900391],[100.650521334416794,36.554969276499747],[100.64398193359375,36.555046081542969],[100.633889867792476,36.552926700098155],[100.627815246582031,36.551651000976562],[100.618934631347656,36.555568695068359],[100.61300915966649,36.558182595202616],[100.6046142578125,36.561885833740234],[100.5474853515625,36.562854766845703],[100.527557373046875,36.571090698242188],[100.516571044921875,36.572731018066406],[100.495374213710761,36.580802340921046],[100.491325378417969,36.582344055175781],[100.473251342773438,36.591011047363281],[100.458290100097656,36.598957061767578],[100.446609497070312,36.603145599365234],[100.443656921386719,36.605800628662109],[100.438056945800781,36.615688323974609],[100.436859130859375,36.623313903808594],[100.439170837402344,36.632396697998047],[100.446739196777344,36.643314361572266],[100.453559875488281,36.647377014160156],[100.460197448730469,36.648689270019531],[100.463768005371094,36.646697998046875],[100.468597412109375,36.646484375],[100.475372314453125,36.649856567382812],[100.472137451171875,36.65252685546875],[100.446197509765625,36.652290344238281],[100.440032958984375,36.648155212402344],[100.437850952148438,36.646686553955078],[100.411094665527344,36.638446807861328],[100.408612368073094,36.638587284798788],[100.399386855981206,36.639109370370335],[100.393501281738281,36.639442443847656],[100.378173828125,36.64447021484375],[100.377109771383033,36.645585021509817],[100.373374938964844,36.649497985839844],[100.371780395507812,36.655536651611328],[100.373283386230469,36.660980224609375],[100.376197814941406,36.662002563476562],[100.377449035644531,36.659420013427734],[100.382339477539062,36.660129547119141],[100.379234313964844,36.664852142333984],[100.363815307617188,36.664371490478516],[100.362591055535731,36.66395771706695]]]}}
]
}
